[{"OBJECT_NAME":"OBJECT AL","OBJECT_ID":"2023-085AL","EPOCH":"2026-03-09T22:26:04.970400","MEAN_MOTION":15.31857284,"ECCENTRICITY":0.000802,"INCLINATION":97.4839,"RA_OF_ASC_NODE":180.0127,"ARG_OF_PERICENTER":78.7242,"MEAN_ANOMALY":281.49,"EPHEMERIS_TYPE":0,"CLASSIFICATION_TYPE":"U","NORAD_CAT_ID":57038,"ELEMENT_SET_NO":999,"REV_AT_EPOCH":15154,"BSTAR":0.0006591637,"MEAN_MOTION_DOT":0.00020246,"MEAN_MOTION_DDOT":0},{"OBJECT_NAME":"STARLINK-32193","OBJECT_ID":"2024-144D","EPOCH":"2026-03-09T16:11:47.208480","MEAN_MOTION":15.3018781,"ECCENTRICITY":0.00011721,"INCLINATION":53.1613,"RA_OF_ASC_NODE":217.4329,"ARG_OF_PERICENTER":94.4378,"MEAN_ANOMALY":265.6756,"EPHEMERIS_TYPE":0,"CLASSIFICATION_TYPE":"U","NORAD_CAT_ID":60428,"ELEMENT_SET_NO":999,"REV_AT_EPOCH":8934,"BSTAR":2.5117579e-5,"MEAN_MOTION_DOT":3.85e-6,"MEAN_MOTION_DDOT":0}]
